{"type":"FeatureCollection","features":[{"type":"Feature","properties":{"shapeName":"Lagos","shapeISO":"NG-LA","shapeID":"27671186B19119389308001","shapeGroup":"NGA","shapeType":"ADM1","source":"geoBoundaries gbOpen NGA ADM1","license":"Creative Commons Attribution 4.0 International (CC BY 4.0)","boundary_year":"2022","source_url":"https://github.com/wmgeolab/geoBoundaries/raw/9469f09/releaseData/gbOpen/NGA/ADM1/geoBoundaries-NGA-ADM1.geojson"},"geometry":{"type":"Polygon","coordinates":[[[2.704643681860489,6.459847241656917],[2.698830793306513,6.458776587969226],[2.699168414990424,6.431572015136453],[2.701487372644181,6.411780768867459],[2.699843440722248,6.375246297278863],[2.705958595013215,6.374991327787598],[2.819086948403992,6.389823631355569],[2.925151906835083,6.394530575026067],[2.992195814984939,6.394732927882387],[3.006941508443902,6.396614781746848],[3.036944533163705,6.396596437375706],[3.181216714779623,6.402429807989279],[3.21471312271251,6.401617082562382],[3.258195968669042,6.402855894184199],[3.33499884122358,6.400909906067341],[3.359591686607075,6.397662151986765],[3.401716955573079,6.398581385922284],[3.404617598323568,6.411924796192466],[3.408751440027004,6.416107119448043],[3.430112604013516,6.422180505625875],[3.430424059023153,6.423817334702278],[3.439951745676581,6.418639484424716],[3.460916052333971,6.420120381850211],[3.467794528694583,6.417299515260481],[3.477336454313956,6.41772152572787],[3.481826360098466,6.419277814219811],[3.491797652639605,6.418320556048855],[3.496650916007013,6.419512567850802],[3.576093449852863,6.421317414567056],[3.672300239664366,6.42213834900565],[3.714778377420203,6.4241486170651],[3.805445607828574,6.435305796125647],[3.860232531706004,6.435687965727084],[3.871905082553553,6.43413653357419],[3.896424393970676,6.433735506988114],[3.97551005794287,6.425839295746925],[4.07701061524773,6.410626673382296],[4.084564346667321,6.407978398384444],[4.192200731878302,6.388067498216515],[4.259274965167549,6.379159028966058],[4.29289980708046,6.376991054893324],[4.35083770809382,6.370382298704158],[4.359663678935704,6.367825533321763],[4.367156179114431,6.407146073132822],[4.3686295177381,6.438459141176452],[4.353724428439648,6.451056359663312],[4.328378915254802,6.448060210710196],[4.321038983262497,6.451448403820848],[4.312220063105485,6.445345477611738],[4.291334057720633,6.450069662185228],[4.284765426583192,6.455905739758123],[4.276268262270548,6.455927102254009],[4.265924135090813,6.452047709334352],[4.264146198788069,6.445084003324155],[4.260086784077885,6.444175170048084],[4.250683702990557,6.449328705355526],[4.247559350283836,6.455155923706968],[4.238376267650665,6.456480079192374],[4.234937720599362,6.45909192894942],[4.230750267610802,6.468597202698788],[4.224790637577883,6.473435745962945],[4.204882914714801,6.472105014634792],[4.202134878821653,6.47548079889981],[4.195782323295646,6.476184967162567],[4.183013049212889,6.482953470826089],[4.173446655738644,6.48443061897791],[4.1693195580512,6.487503161741586],[4.16789159022477,6.499069323690378],[4.163622323211712,6.506966422562414],[4.173510549872049,6.51199751787118],[4.181723165991343,6.520707903347102],[4.197897154630027,6.528710061919867],[4.208619093296591,6.529909637919502],[4.225640365610445,6.539746500700517],[4.232702014986046,6.54692713937601],[4.239324706170294,6.562302049799825],[4.240955593425952,6.571563357263187],[4.222408089761586,6.595729662294104],[4.213609710120068,6.598890673166068],[4.193155570872932,6.59534105624482],[4.177784630956012,6.604107106158096],[4.16329071979095,6.595181877141954],[4.156231035433962,6.588842539851385],[4.144423231946632,6.58220766375274],[4.131782934135174,6.579786018809784],[4.128171862041825,6.57443385293999],[4.121270134609063,6.569931367438699],[4.116797345621023,6.555774723624666],[4.109519558580814,6.554182759926505],[4.101334211704568,6.557723325171366],[4.100973723858317,6.567908835324545],[4.098761843084617,6.571895690034125],[4.090486868873938,6.569616473421547],[4.07172972964338,6.571265101603217],[4.069640786193361,6.572552573742314],[4.070226959806405,6.576181758181633],[4.061196912107846,6.585169589005375],[4.058602118892736,6.596034366093193],[4.058370370796013,6.608655527230837],[4.054489672060754,6.615224574754393],[4.054730320747751,6.622011111623578],[4.057555780175164,6.620760814759819],[4.062381101606604,6.628588190092955],[4.05851663113765,6.634483355822283],[4.062815834783009,6.636449925823456],[4.070596940896166,6.631849005926938],[4.076152676404945,6.633416392052879],[4.079221022931904,6.635707039947988],[4.083290749268713,6.636248562221397],[4.093292661027533,6.646229449629459],[4.090016645751632,6.647504977872472],[4.096370124881389,6.652564150914884],[4.093887719043039,6.666377387706348],[4.096914880217582,6.671539591578949],[4.091332317032879,6.679688255108942],[3.982532114665389,6.682713381117708],[3.978807413231607,6.691934445718118],[3.912122878667958,6.681201142318912],[3.862319108140355,6.682688476192254],[3.757246601049872,6.682727251361598],[3.755180387065252,6.683994056180779],[3.696285484187797,6.684152984372759],[3.691189018958084,6.68237196339544],[3.684938137185327,6.683426985067342],[3.461350585860885,6.683327682826359],[3.459019961302204,6.673523020271205],[3.443198472731353,6.68590903567349],[3.439240084262508,6.682807433116579],[3.439770517895113,6.675487673817145],[3.443471017673403,6.673893769382005],[3.444150577786957,6.671089694034208],[3.442467865299818,6.66853713568031],[3.442074065665622,6.66276098623058],[3.447675806893017,6.661772916387008],[3.448072499646173,6.65490662314221],[3.452062009154474,6.640944811154156],[3.392538762553897,6.638496015678641],[3.390778050067013,6.639768780305019],[3.382229331218696,6.639070829954903],[3.383931352150228,6.641106776356708],[3.378430308911675,6.639288194294807],[3.37055455724709,6.641725955088816],[3.363685628988662,6.649428232027333],[3.352703363569447,6.652300889674393],[3.35207960818741,6.655970486049114],[3.354048382426981,6.657300231720342],[3.348417298119841,6.661161793781787],[3.345033850731681,6.672554372186596],[3.32807830177228,6.671651784702135],[3.317225298608719,6.675666171256864],[3.315540905288572,6.67432942616216],[3.311824967748123,6.674865138815164],[3.306930614356418,6.679075956190502],[3.285464882598319,6.686796528037405],[3.272455435569952,6.698423097448028],[3.263052932746689,6.700208927100334],[3.257746197029405,6.696956686302087],[3.256220137449418,6.688297152991254],[3.257043517144666,6.683539078365811],[3.254099133168495,6.678630361002433],[3.24428046457183,6.665767388354311],[3.238407638901435,6.660814232790642],[3.237830248067553,6.619846251903027],[3.22739983903142,6.607817416640501],[3.224616983187275,6.60176481559381],[3.211792481737689,6.59466287209392],[3.205080611980691,6.588553783730163],[3.204375038077615,6.586241051183606],[3.193281587675187,6.577774588826287],[3.191670106889944,6.569610689881472],[3.192128901427679,6.567711075305908],[3.193553864619219,6.568874699108108],[3.195345252981099,6.566959246572026],[3.198451797312657,6.559697271412006],[3.200131982704875,6.550461392279487],[3.198629080667615,6.545774662670567],[3.201186285818494,6.544073342310924],[3.200264197434819,6.536307452726817],[3.201396128228794,6.532600029967455],[3.196220754684134,6.530419528338598],[3.188700576070801,6.530652173059366],[3.184410701992363,6.527023376227874],[3.175323984414376,6.514787462171682],[3.163365843059239,6.511083193334741],[3.160445337882095,6.508068376254585],[3.155196283781493,6.507993067925781],[3.150999203550441,6.505941710741411],[3.145516236685012,6.505897365171336],[3.142315841802713,6.507843677943413],[3.115875966102976,6.504855879195532],[3.108609416991044,6.503293344012661],[3.103014903614962,6.499618730320208],[3.093649860252924,6.500062213900094],[3.077245926658236,6.492390583158908],[3.072255453726257,6.497199016221657],[3.059849030008763,6.501767656752008],[2.954158496217701,6.501846857346663],[2.95401565599775,6.512688771869364],[2.950339731993097,6.514124501744391],[2.937658357647138,6.513192517220944],[2.93511937276088,6.516271146596182],[2.931375225286445,6.511985397707974],[2.9346836314445,6.510388917614478],[2.93503995093306,6.508596738748565],[2.930008764792717,6.508596066954965],[2.926540345860303,6.504654978744327],[2.924782363715167,6.50819321474512],[2.926481864746336,6.511858334294743],[2.924299247912018,6.512696681406794],[2.918865941609965,6.512948586907783],[2.917441807593377,6.511535257346281],[2.88553154294641,6.511425637183436],[2.88936655432309,6.48652829304632],[2.888786656179263,6.481257193864451],[2.884268396569269,6.474297454763757],[2.876474834845794,6.469935573767771],[2.864630738317942,6.469266819907887],[2.860012808644228,6.4668426343801],[2.858118390351478,6.463170000994808],[2.858211868582941,6.449129903022651],[2.839451279552975,6.448805820632174],[2.831411785625448,6.444949058252462],[2.818306921427336,6.454585547584998],[2.793675320659588,6.462111785830302],[2.782314850749799,6.460613668186284],[2.773416477288663,6.454003859790362],[2.759232691035891,6.452542138608862],[2.737731411775258,6.452640256442749],[2.729841017349145,6.459789657166993],[2.722979404176215,6.461516906779877],[2.704643681860489,6.459847241656917]]]}}]}